STARLINK-1725           
1 46334U 20062K   24235.65582922 -.00002634  00000+0 -15806-3 0  9994
2 46334  53.0560   8.9500 0001361  95.3857 264.7287 15.06391800219754
STARLINK-1727           
1 46335U 20062L   24235.41805125  .00002517  00000+0  18780-3 0  9994
2 46335  53.0558  29.7295 0002332  83.9889 276.1365 15.06405953219266
STARLINK-1738           
1 46336U 20062M   24235.67422733  .00026457  00000+0  17894-2 0  9996
2 46336  53.0560   8.5797 0001250  80.6757 279.4373 15.06379001219762
STARLINK-1750           
1 46337U 20062N   24235.68897135 -.00002699  00000+0 -16241-3 0  9990
2 46337  53.0571   8.5147 0001563  87.2354 272.8814 15.06386329219765
STARLINK-1752           
1 46338U 20062P   24235.73873772 -.00001900  00000+0 -10877-3 0  9991
2 46338  53.0555  28.2876 0001540  76.6624 283.4536 15.06380719219488
STARLINK-1759           
1 46340U 20062R   24235.60976584 -.00001252  00000+0 -65222-4 0  9990
2 46340  53.0551  29.1833 0000772  97.0399 263.0678 15.06385288219276
STARLINK-1760           
1 46341U 20062S   24235.65211142  .00026569  00000+0  17970-2 0  9999
2 46341  53.0564   8.6837 0001386  85.6100 274.5047 15.06376287219762
STARLINK-1762           
1 46342U 20062T   24235.69818197  .00004808  00000+0  34149-3 0  9997
2 46342  53.0553  28.4738 0001462  85.7335 274.3821 15.06397282219482
STARLINK-1764           
1 46343U 20062U   24235.69266707  .00002034  00000+0  15549-3 0  9994
2 46343  53.0566   8.4960 0001174  73.5466 286.5651 15.06379974219767
STARLINK-1765           
1 46344U 20062V   24235.64474244  .00002484  00000+0  18567-3 0  9999
2 46344  53.0569   8.7123 0001860  94.8040 265.3162 15.06386793219737
STARLINK-1767           
1 46345U 20062W   24235.71293437  .00001013  00000+0  86921-4 0  9998
2 46345  53.0562  28.4138 0001262  80.7220 279.3912 15.06388130219483
STARLINK-1547           
1 46347U 20062Y   24235.60466045  .00036203  00000+0  24340-2 0  9999
2 46347  53.0564 343.8942 0001477 115.2590 244.8552 15.06444502220098
STARLINK-1553           
1 46348U 20062Z   24235.64842834  .00024640  00000+0  16683-2 0  9991
2 46348  53.0554   8.6977 0001537  93.3800 266.7365 15.06377293219757
STARLINK-1575           
1 46349U 20062AA  24235.57887021  .00046842  00000+0  31384-2 0  9994
2 46349  53.0561 344.0106 0000925  42.0791 318.0269 15.06451770219912
STARLINK-1646           
1 46351U 20062AC  24235.68160001 -.00000621  00000+0 -22821-4 0  9996
2 46351  53.0570   8.5489 0001588  95.9316 264.1854 15.06386188219761
STARLINK-1653           
1 46352U 20062AD  24235.66316904  .00023394  00000+0  15851-2 0  9993
2 46352  53.0564   8.6316 0001542  97.0215 263.0949 15.06379394219760
STARLINK-1656           
1 46353U 20062AE  24235.72767128 -.00003805  00000+0 -23679-3 0  9994
2 46353  53.0578  28.3435 0001417  96.8718 263.2432 15.06384700219488
STARLINK-1657           
1 46354U 20062AF  24235.71664370  .00000119  00000+0  26877-4 0  9996
2 46354  53.0566  28.3926 0001098  93.3775 266.7340 15.06372198219485
STARLINK-1661           
1 46355U 20062AG  24235.69081605 -.00001486  00000+0 -80922-4 0  9999
2 46355  53.0551  28.5012 0001547 109.6485 250.4671 15.06386650219481
STARLINK-1665           
1 46356U 20062AH  24235.70556374  .00000719  00000+0  67148-4 0  9993
2 46356  53.0558  28.4818 0001450  91.8801 268.2354 15.06398511219483
STARLINK-1666           
1 46357U 20062AJ  24235.76637742  .00001161  00000+0  96815-4 0  9994
2 46357  53.0553   8.1604 0001344  91.0891 269.0252 15.06391181219774
STARLINK-1690           
1 46358U 20062AK  24235.74610812  .00002346  00000+0  17636-3 0  9991
2 46358  53.0556  28.2554 0001534  74.6094 285.5065 15.06391874219491
STARLINK-1707           
1 46359U 20062AL  24235.59360088  .00037668  00000+0  25310-2 0  9994
2 46359  53.0560 343.9415 0001296  69.7258 290.3870 15.06447576220099
STARLINK-1713           
1 46360U 20062AM  24235.54936438  .00025156  00000+0  17009-2 0  9994
2 46360  53.0550 344.1461 0000524 152.7719 207.3298 15.06417169220099
STARLINK-1722           
1 46361U 20062AN  24235.71796555  .00039636  00000+0  26634-2 0  9990
2 46361  53.0555 343.3728 0001216  49.9569 310.1527 15.06420775220108
STARLINK-1726           
1 46362U 20062AP  24235.63048450  .00029226  00000+0  19718-2 0  9995
2 46362  53.0545 343.7850 0001225  69.3261 290.7859 15.06419228220105
STARLINK-1739           
1 46363U 20062AQ  24235.55580189  .00035198  00000+0  23671-2 0  9995
2 46363  53.0545 344.1083 0001170  81.1848 278.9273 15.06446773219911
STARLINK-1763           
1 46364U 20062AR  24235.62498988  .00026177  00000+0  17673-2 0  9991
2 46364  53.0544 324.3067 0001440  79.1893 280.9258 15.06450791220373
STARLINK-1651           
1 46366U 20062AT  24235.58991665  .00026525  00000+0  17904-2 0  9992
2 46366  53.0559 343.9627 0000660 120.6470 239.4584 15.06451824220094
STARLINK-1670           
1 46370U 20062AX  24235.75163105 -.00008294  00000+0 -53850-3 0  9992
2 46370  53.0565   8.2348 0001413  88.5317 271.5834 15.06404634219771
