OBJECT_NAME,OBJECT_ID,EPOCH,MEAN_MOTION,ECCENTRICITY,INCLINATION,RA_OF_ASC_NODE,ARG_OF_PERICENTER,MEAN_ANOMALY,EPHEMERIS_TYPE,CLASSIFICATION_TYPE,NORAD_CAT_ID,ELEMENT_SET_NO,REV_AT_EPOCH,BSTAR,MEAN_MOTION_DOT,MEAN_MOTION_DDOT
STARLINK-1725,2020-062K,2024-08-22T15:44:23.644608,15.06391800,.0001361,53.0560,8.9500,95.3857,264.7287,0,U,46334,999,21975,-.15806E-3,-.2634E-4,0
STARLINK-1727,2020-062L,2024-08-22T10:01:59.628000,15.06405953,.0002332,53.0558,29.7295,83.9889,276.1365,0,U,46335,999,21926,.1878E-3,.2517E-4,0
STARLINK-1738,2020-062M,2024-08-22T16:10:53.241312,15.06379001,.000125,53.0560,8.5797,80.6757,279.4373,0,U,46336,999,21976,.17894E-2,.26457E-3,0
STARLINK-1750,2020-062N,2024-08-22T16:32:07.124640,15.06386329,.0001563,53.0571,8.5147,87.2354,272.8814,0,U,46337,999,21976,-.16241E-3,-.2699E-4,0
STARLINK-1752,2020-062P,2024-08-22T17:43:46.939008,15.06380719,.000154,53.0555,28.2876,76.6624,283.4536,0,U,46338,999,21948,-.10877E-3,-.19E-4,0
STARLINK-1759,2020-062R,2024-08-22T14:38:03.768576,15.06385288,.0000772,53.0551,29.1833,97.0399,263.0678,0,U,46340,999,21927,-.65222E-4,-.1252E-4,0
STARLINK-1760,2020-062S,2024-08-22T15:39:02.426688,15.06376287,.0001386,53.0564,8.6837,85.6100,274.5047,0,U,46341,999,21976,.1797E-2,.26569E-3,0
STARLINK-1762,2020-062T,2024-08-22T16:45:22.922208,15.06397282,.0001462,53.0553,28.4738,85.7335,274.3821,0,U,46342,999,21948,.34149E-3,.4808E-4,0
STARLINK-1764,2020-062U,2024-08-22T16:37:26.434848,15.06379974,.0001174,53.0566,8.4960,73.5466,286.5651,0,U,46343,999,21976,.15549E-3,.2034E-4,0
STARLINK-1765,2020-062V,2024-08-22T15:28:25.746816,15.06386793,.000186,53.0569,8.7123,94.8040,265.3162,0,U,46344,999,21973,.18567E-3,.2484E-4,0
STARLINK-1767,2020-062W,2024-08-22T17:06:37.529568,15.06388130,.0001262,53.0562,28.4138,80.7220,279.3912,0,U,46345,999,21948,.86921E-4,.1013E-4,0
STARLINK-1547,2020-062Y,2024-08-22T14:30:42.662880,15.06444502,.0001477,53.0564,343.8942,115.2590,244.8552,0,U,46347,999,22009,.2434E-2,.36203E-3,0
STARLINK-1553,2020-062Z,2024-08-22T15:33:44.208576,15.06377293,.0001537,53.0554,8.6977,93.3800,266.7365,0,U,46348,999,21975,.16683E-2,.2464E-3,0
STARLINK-1575,2020-062AA,2024-08-22T13:53:34.386144,15.06451770,.0000925,53.0561,344.0106,42.0791,318.0269,0,U,46349,999,21991,.31384E-2,.46842E-3,0
STARLINK-1646,2020-062AC,2024-08-22T16:21:30.240864,15.06386188,.0001588,53.0570,8.5489,95.9316,264.1854,0,U,46351,999,21976,-.22821E-4,-.621E-5,0
STARLINK-1653,2020-062AD,2024-08-22T15:54:57.805056,15.06379394,.0001542,53.0564,8.6316,97.0215,263.0949,0,U,46352,999,21976,.15851E-2,.23394E-3,0
STARLINK-1656,2020-062AE,2024-08-22T17:27:50.798592,15.06384700,.0001417,53.0578,28.3435,96.8718,263.2432,0,U,46353,999,21948,-.23679E-3,-.3805E-4,0
STARLINK-1657,2020-062AF,2024-08-22T17:11:58.015680,15.06372198,.0001098,53.0566,28.3926,93.3775,266.7340,0,U,46354,999,21948,.26877E-4,.119E-5,0
STARLINK-1661,2020-062AG,2024-08-22T16:34:46.506720,15.06386650,.0001547,53.0551,28.5012,109.6485,250.4671,0,U,46355,999,21948,-.80922E-4,-.1486E-4,0
STARLINK-1665,2020-062AH,2024-08-22T16:56:00.707136,15.06398511,.000145,53.0558,28.4818,91.8801,268.2354,0,U,46356,999,21948,.67148E-4,.719E-5,0
STARLINK-1666,2020-062AJ,2024-08-22T18:23:35.009088,15.06391181,.0001344,53.0553,8.1604,91.0891,269.0252,0,U,46357,999,21977,.96815E-4,.1161E-4,0
STARLINK-1690,2020-062AK,2024-08-22T17:54:23.741568,15.06391874,.0001534,53.0556,28.2554,74.6094,285.5065,0,U,46358,999,21949,.17636E-3,.2346E-4,0
STARLINK-1707,2020-062AL,2024-08-22T14:14:47.116032,15.06447576,.0001296,53.0560,343.9415,69.7258,290.3870,0,U,46359,999,22009,.2531E-2,.37668E-3,0
STARLINK-1713,2020-062AM,2024-08-22T13:11:05.082432,15.06417169,.0000524,53.0550,344.1461,152.7719,207.3298,0,U,46360,999,22009,.17009E-2,.25156E-3,0
STARLINK-1722,2020-062AN,2024-08-22T17:13:52.223520,15.06420775,.0001216,53.0555,343.3728,49.9569,310.1527,0,U,46361,999,22010,.26634E-2,.39636E-3,0
STARLINK-1726,2020-062AP,2024-08-22T15:07:53.860800,15.06419228,.0001225,53.0545,343.7850,69.3261,290.7859,0,U,46362,999,22010,.19718E-2,.29226E-3,0
STARLINK-1739,2020-062AQ,2024-08-22T13:20:21.283296,15.06446773,.000117,53.0545,344.1083,81.1848,278.9273,0,U,46363,999,21991,.23671E-2,.35198E-3,0
STARLINK-1763,2020-062AR,2024-08-22T14:59:59.125632,15.06450791,.000144,53.0544,324.3067,79.1893,280.9258,0,U,46364,999,22037,.17673E-2,.26177E-3,0
STARLINK-1651,2020-062AT,2024-08-22T14:09:28.798560,15.06451824,.000066,53.0559,343.9627,120.6470,239.4584,0,U,46366,999,22009,.17904E-2,.26525E-3,0
STARLINK-1670,2020-062AX,2024-08-22T18:02:20.922720,15.06404634,.0001413,53.0565,8.2348,88.5317,271.5834,0,U,46370,999,21977,-.5385E-3,-.8294E-4,0
